*******************************************************************************
JPL/HORIZONS               3503 Brandt (1981 EF17)         2023-Sep-04 11:23:57
Rec #:    3503 (+COV) Soln.date: 2023-Aug-23_10:59:42   # obs: 3215 (1974-2023)
 
IAU76/J2000 helio. ecliptic osc. elements (au, days, deg., period=Julian yrs):
 
  EPOCH=  2457905.5 ! 2017-Jun-01.00 (TDB)         Residual RMS= .26115
   EC= .1853528528490027   QR= 2.131342486378764   TP= 2457507.4683109708
   OM= 186.9104741943034   W=  113.6819236331952   IN= 11.91581384264179
   A= 2.616276867638393    MA= 92.70350859982983   ADIST= 3.101211248898021
   PER= 4.23188            N= .232904844           ANGMOM= .027342101
   DAN= 2.72961            DDN= 2.35134            L= 301.0548775
   B= 10.8995027           MOID= 1.14914           TP= 2016-Apr-28.9683109708
 
Asteroid physical parameters (km, seconds, rotational period in hours):
   GM= n.a.                RAD= 2.6225             ROTPER= n.a.
   H= 13.59                G= .150                 B-V= n.a.
                           ALBEDO= .213            STYP= n.a.

ASTEROID comments: 
1: soln ref.= JPL#45, OCC=0
2: source=ORB
*******************************************************************************


*******************************************************************************
Ephemeris / API_USER Mon Sep  4 11:23:57 2023 Pasadena, USA      / Horizons
*******************************************************************************
Target body name: 3503 Brandt (1981 EF17)         {source: JPL#45}
Center body name: Solar System Barycenter (0)     {source: DE441}
Center-site name: BODY CENTER
*******************************************************************************
Start time      : A.D. 2023-Aug-12 00:00:00.0000 TDB
Stop  time      : A.D. 2023-Aug-13 00:00:00.0000 TDB
Step-size       : 2880 minutes
*******************************************************************************
Center geodetic : 0.0, 0.0, 0.0                   {E-lon(deg),Lat(deg),Alt(km)}
Center cylindric: 0.0, 0.0, 0.0                   {E-lon(deg),Dxy(km),Dz(km)}
Center radii    : (undefined)
Small perturbers: Yes                             {source: SB441-N16}
Output units    : KM-S
Calendar mode   : Mixed Julian/Gregorian
Output type     : GEOMETRIC cartesian states
Output format   : 2 (position and velocity)
Reference frame : Ecliptic of J2000.0
*******************************************************************************
Initial IAU76/J2000 heliocentric ecliptic osculating elements (au, days, deg.):
  EPOCH=  2457905.5 ! 2017-Jun-01.00 (TDB)         Residual RMS= .26115        
   EC= .1853528528490027   QR= 2.131342486378764   TP= 2457507.4683109708      
   OM= 186.9104741943034   W=  113.6819236331952   IN= 11.91581384264179       
  Equivalent ICRF heliocentric cartesian coordinates (au, au/d):
   X= 1.613672521928188E+00  Y= 2.143433698106265E+00  Z= 4.812172563500948E-01
  VX=-6.989266599851713E-03 VY= 7.308559346561825E-03 VZ= 1.323929464662844E-03
Asteroid physical parameters (km, seconds, rotational period in hours):        
   GM= n.a.                RAD= 2.6225             ROTPER= n.a.                
   H= 13.59                G= .150                 B-V= n.a.                   
                           ALBEDO= .213            STYP= n.a.                  
*******************************************************************************
JDTDB
   X     Y     Z
   VX    VY    VZ
*******************************************************************************
$$SOE
2460168.500000000 = A.D. 2023-Aug-12 00:00:00.0000 TDB 
 X =-4.171172359509062E+08 Y =-7.001367767294231E+06 Z =-9.025729680124233E+06
 VX= 3.214890838794371E+00 VY=-1.662890249889708E+01 VZ= 3.562457291991504E+00
$$EOE
*******************************************************************************
 
TIME

  Barycentric Dynamical Time ("TDB" or T_eph) output was requested. This
continuous coordinate time is equivalent to the relativistic proper time
of a clock at rest in a reference frame co-moving with the solar system
barycenter but outside the system's gravity well. It is the independent
variable in the solar system relativistic equations of motion.

  TDB runs at a uniform rate of one SI second per second and is independent
of irregularities in Earth's rotation.
 
CALENDAR SYSTEM

  Mixed calendar mode was active such that calendar dates after AD 1582-Oct-15
(if any) are in the modern Gregorian system. Dates prior to 1582-Oct-5 (if any)
are in the Julian calendar system, which is automatically extended for dates
prior to its adoption on 45-Jan-1 BC.  The Julian calendar is useful for
matching historical dates. The Gregorian calendar more accurately corresponds
to the Earth's orbital motion and seasons. A "Gregorian-only" calendar mode is
available if such physical events are the primary interest.

REFERENCE FRAME AND COORDINATES

  Ecliptic at the standard reference epoch

    Reference epoch: J2000.0
    X-Y plane: adopted Earth orbital plane at the reference epoch
               Note: IAU76 obliquity of 84381.448 arcseconds wrt ICRF X-Y plane
    X-axis   : ICRF
    Z-axis   : perpendicular to the X-Y plane in the directional (+ or -) sense
               of Earth's north pole at the reference epoch.

  Symbol meaning:

    JDTDB    Julian Day Number, Barycentric Dynamical Time
      X      X-component of position vector (km)
      Y      Y-component of position vector (km)
      Z      Z-component of position vector (km)
      VX     X-component of velocity vector (km/sec)                           
      VY     Y-component of velocity vector (km/sec)                           
      VZ     Z-component of velocity vector (km/sec)                           

ABERRATIONS AND CORRECTIONS

 Geometric state vectors have NO corrections or aberrations applied.

Computations by ...

    Solar System Dynamics Group, Horizons On-Line Ephemeris System
    4800 Oak Grove Drive, Jet Propulsion Laboratory
    Pasadena, CA  91109   USA

    General site: https://ssd.jpl.nasa.gov/
    Mailing list: https://ssd.jpl.nasa.gov/email_list.html
    System news : https://ssd.jpl.nasa.gov/horizons/news.html
    User Guide  : https://ssd.jpl.nasa.gov/horizons/manual.html
    Connect     : browser        https://ssd.jpl.nasa.gov/horizons/app.html#/x
                  API            https://ssd-api.jpl.nasa.gov/doc/horizons.html
                  command-line   telnet ssd.jpl.nasa.gov 6775
                  e-mail/batch   https://ssd.jpl.nasa.gov/ftp/ssd/hrzn_batch.txt
                  scripts        https://ssd.jpl.nasa.gov/ftp/ssd/SCRIPTS
    Author      : Jon.D.Giorgini@jpl.nasa.gov
*******************************************************************************
